FLOCK 2K-29             
1 42871U 17042AY  17292.25203025  .00004771  00000-0  14593-3 0  9990
2 42871  96.9954 196.1159 0009642 262.9694  97.0454 15.34257964 14669
FLOCK 2K-30             
1 42872U 17042AZ  17292.51219795  .00002666  00000-0  82534-4 0  9993
2 42872  96.9951 196.3619 0009666 263.1326  96.8818 15.34248547 14692
FLOCK 2K-44             
1 42873U 17042BA  17292.31396535  .00008927  00000-0  27113-3 0  9997
2 42873  96.9957 196.1822 0010583 250.0358 109.9747 15.34230946 14672
FLOCK 2K-43             
1 42874U 17042BB  17292.19408760  .00002338  00000-0  74191-4 0  9997
2 42874  96.9954 196.0440 0011085 250.5606 109.4440 15.33558582 14655
FLOCK 2K-41             
1 42875U 17042BC  17292.50824653  .00004831  00000-0  14804-3 0  9990
2 42875  96.9952 196.3662 0010709 250.6232 109.3854 15.34177960 14703
FLOCK 2K-36             
1 42876U 17042BD  17292.50490343  .00007835  00000-0  23813-3 0  9993
2 42876  96.9957 196.3734 0010850 249.9067 110.1010 15.34246467 14706
FLOCK 2K-35             
1 42877U 17042BE  17292.70257653  .00008167  00000-0  24807-3 0  9994
2 42877  96.9956 196.5557 0010765 249.4830 110.5259 15.34255748 14733
FLOCK 2K-34             
1 42878U 17042BF  17292.69918872  .00006970  00000-0  21187-3 0  9998
2 42878  96.9957 196.5555 0010893 249.3687 110.6389 15.34282980 14737
FLOCK 2K-33             
1 42879U 17042BG  17292.30521063  .00005798  00000-0  17695-3 0  9995
2 42879  96.9949 196.1883 0010928 250.3293 109.6772 15.34227090 14671
FLOCK 2K-28             
1 42880U 17042BH  17292.45195252  .00002205  00000-0  70079-4 0  9996
2 42880  96.9955 196.2966 0011131 249.9690 110.0355 15.33577445 14691
LEMUR-2-ARTFISCHER      
1 42881U 17042BJ  17292.57465996  .00004407  00000-0  13623-3 0  9992
2 42881  96.9982 196.4586 0011640 252.7103 107.2868 15.33939572 14700
FLOCK 2K-27             
1 42882U 17042BK  17292.30311937  .00002431  00000-0  75525-4 0  9994
2 42882  96.9953 196.1951 0011008 251.4677 108.5371 15.34208143 14675
FLOCK 2K-26             
1 42883U 17042BL  17292.30033532  .00010803  00000-0  32764-3 0  9996
2 42883  96.9950 196.1967 0010986 249.9534 110.0528 15.34221276 14672
FLOCK 2K-25             
1 42884U 17042BM  17292.30624705  .00002507  00000-0  77826-4 0  9996
2 42884  96.9950 196.1857 0010831 251.0292 108.9778 15.34201308 14672
FLOCK 2K-20             
1 42885U 17042BN  17292.36422963  .00007951  00000-0  24192-3 0  9990
2 42885  96.9954 196.2621 0011087 250.2803 109.7246 15.34206303 14680
FLOCK 2K-19             
1 42886U 17042BP  17292.30201601  .00008410  00000-0  25569-3 0  9999
2 42886  96.9958 196.1976 0011113 250.8455 109.1586 15.34212116 14675
FLOCK 2K-18             
1 42887U 17042BQ  17292.68331307  .00002493  00000-0  76875-4 0  9990
2 42887  96.9953 196.5780 0011433 247.5542 112.4492 15.34416720 14730
FLOCK 2K-17             
1 42888U 17042BR  17292.81677934  .00002446  00000-0  75773-4 0  9999
2 42888  96.9949 196.6936 0011348 247.3005 112.7040 15.34294353 14757
FLOCK 2K-16             
1 42889U 17042BS  17292.49327216  .00004360  00000-0  13319-3 0  9993
2 42889  96.9953 196.3879 0010913 248.5873 111.4207 15.34329686 14703
FLOCK 2K-15             
1 42890U 17042BT  17292.29119298  .00006193  00000-0  18761-3 0  9994
2 42890  96.9958 196.2141 0011339 248.4468 111.5567 15.34430994 14674
FLOCK 2K-13             
1 42891U 17042BU  17292.49307755  .00002362  00000-0  73365-4 0  9990
2 42891  96.9952 196.3863 0011253 246.1115 113.8951 15.34238553 14703
FLOCK 2K-14             
1 42892U 17042BV  17292.35834298  .00002399  00000-0  74206-4 0  9998
2 42892  96.9950 196.2636 0011343 248.0849 111.9189 15.34354107 14687
FLOCK 2K-12             
1 42893U 17042BW  17292.48504386  .00002612  00000-0  80214-4 0  9999
2 42893  96.9955 196.3980 0011384 246.8234 113.1811 15.34507684 14704
FLOCK 2K-11             
1 42894U 17042BX  17292.48981634  .00005833  00000-0  17750-3 0  9997
2 42894  96.9956 196.3931 0011330 244.9018 115.1051 15.34310941 14708
FLOCK 2K-10             
1 42895U 17042BY  17292.68075720  .00002391  00000-0  73940-4 0  9990
2 42895  96.9950 196.5773 0011509 244.9591 115.0459 15.34358791 14732
FLOCK 2K-09             
1 42896U 17042BZ  17292.67761385  .00002596  00000-0  79964-4 0  9998
2 42896  96.9954 196.5856 0011210 243.4100 116.5995 15.34420871 14907
FLOCK 2K-06             
1 42897U 17042CA  17292.77921138  .00006927  00000-0  21099-3 0  9991
2 42897  96.9953 196.6032 0009407 261.2737  98.7442 15.34234951 14745
SILU-1 (SILKROAD 1)     
1 42903U 17021F   17292.56269635  .00018145  00000-0  20673-3 0  9992
2 42903  42.7823 334.9981 0007155  40.4796  86.6261 15.61887788 12181
